*******************************************************************************
JPL/HORIZONS               4548 Wielen (2538 P-L)          2023-Sep-05 05:18:50
Rec #:    4548 (+COV) Soln.date: 2023-Aug-23_19:28:33   # obs: 3173 (1950-2023)
 
IAU76/J2000 helio. ecliptic osc. elements (au, days, deg., period=Julian yrs):
 
  EPOCH=  2457810.5 ! 2017-Feb-26.00 (TDB)         Residual RMS= .26284
   EC= .06399995034769786  QR= 2.138666404832503   TP= 2458180.8452146798
   OM= 26.22988631701612   W=  201.7217975415942   IN= 8.285634935830537
   A= 2.284899883955089    MA= 254.3158039864353   ADIST= 2.431133363077676
   PER= 3.45389            N= .285366711           ANGMOM= .025949188
   DAN= 2.41939            DDN= 2.14784            L= 227.7457666
   B= -3.0572889           MOID= 1.13134003        TP= 2018-Mar-03.3452146798
 
Asteroid physical parameters (km, seconds, rotational period in hours):
   GM= n.a.                RAD= 2.61               ROTPER= 24.48
   H= 14.07                G= .150                 B-V= n.a.
                           ALBEDO= .179            STYP= Xc

ASTEROID comments: 
1: soln ref.= JPL#51, OCC=0
2: source=ORB
*******************************************************************************


*******************************************************************************
Ephemeris / API_USER Tue Sep  5 05:18:51 2023 Pasadena, USA      / Horizons
*******************************************************************************
Target body name: 4548 Wielen (2538 P-L)          {source: JPL#51}
Center body name: Solar System Barycenter (0)     {source: DE441}
Center-site name: BODY CENTER
*******************************************************************************
Start time      : A.D. 2023-Aug-12 00:00:00.0000 TDB
Stop  time      : A.D. 2023-Aug-13 00:00:00.0000 TDB
Step-size       : 2880 minutes
*******************************************************************************
Center geodetic : 0.0, 0.0, 0.0                   {E-lon(deg),Lat(deg),Alt(km)}
Center cylindric: 0.0, 0.0, 0.0                   {E-lon(deg),Dxy(km),Dz(km)}
Center radii    : (undefined)
Small perturbers: Yes                             {source: SB441-N16}
Output units    : KM-S
Calendar mode   : Mixed Julian/Gregorian
Output type     : GEOMETRIC cartesian states
Output format   : 2 (position and velocity)
Reference frame : Ecliptic of J2000.0
*******************************************************************************
Initial IAU76/J2000 heliocentric ecliptic osculating elements (au, days, deg.):
  EPOCH=  2457810.5 ! 2017-Feb-26.00 (TDB)         Residual RMS= .26284        
   EC= .06399995034769786  QR= 2.138666404832503   TP= 2458180.8452146798      
   OM= 26.22988631701612   W=  201.7217975415942   IN= 8.285634935830537       
  Equivalent ICRF heliocentric cartesian coordinates (au, au/d):
   X=-9.888911403346358E-01  Y= 1.780149034179931E+00  Z= 1.138169366126649E+00
  VX=-9.763904489641449E-03 VY=-4.898301700712626E-03 VZ=-2.203377899316950E-03
Asteroid physical parameters (km, seconds, rotational period in hours):        
   GM= n.a.                RAD= 2.61               ROTPER= 24.48               
   H= 14.07                G= .150                 B-V= n.a.                   
                           ALBEDO= .179            STYP= Xc                    
*******************************************************************************
JDTDB
   X     Y     Z
   VX    VY    VZ
*******************************************************************************
$$SOE
2460168.500000000 = A.D. 2023-Aug-12 00:00:00.0000 TDB 
 X = 1.127060753714390E+08 Y = 3.410579904670641E+08 Z = 3.730241559937990E+07
 VX=-1.774490878712673E+01 VY= 5.185405360400647E+00 VZ= 1.820049972908259E+00
$$EOE
*******************************************************************************
 
TIME

  Barycentric Dynamical Time ("TDB" or T_eph) output was requested. This
continuous coordinate time is equivalent to the relativistic proper time
of a clock at rest in a reference frame co-moving with the solar system
barycenter but outside the system's gravity well. It is the independent
variable in the solar system relativistic equations of motion.

  TDB runs at a uniform rate of one SI second per second and is independent
of irregularities in Earth's rotation.
 
CALENDAR SYSTEM

  Mixed calendar mode was active such that calendar dates after AD 1582-Oct-15
(if any) are in the modern Gregorian system. Dates prior to 1582-Oct-5 (if any)
are in the Julian calendar system, which is automatically extended for dates
prior to its adoption on 45-Jan-1 BC.  The Julian calendar is useful for
matching historical dates. The Gregorian calendar more accurately corresponds
to the Earth's orbital motion and seasons. A "Gregorian-only" calendar mode is
available if such physical events are the primary interest.

REFERENCE FRAME AND COORDINATES

  Ecliptic at the standard reference epoch

    Reference epoch: J2000.0
    X-Y plane: adopted Earth orbital plane at the reference epoch
               Note: IAU76 obliquity of 84381.448 arcseconds wrt ICRF X-Y plane
    X-axis   : ICRF
    Z-axis   : perpendicular to the X-Y plane in the directional (+ or -) sense
               of Earth's north pole at the reference epoch.

  Symbol meaning:

    JDTDB    Julian Day Number, Barycentric Dynamical Time
      X      X-component of position vector (km)
      Y      Y-component of position vector (km)
      Z      Z-component of position vector (km)
      VX     X-component of velocity vector (km/sec)                           
      VY     Y-component of velocity vector (km/sec)                           
      VZ     Z-component of velocity vector (km/sec)                           

ABERRATIONS AND CORRECTIONS

 Geometric state vectors have NO corrections or aberrations applied.

Computations by ...

    Solar System Dynamics Group, Horizons On-Line Ephemeris System
    4800 Oak Grove Drive, Jet Propulsion Laboratory
    Pasadena, CA  91109   USA

    General site: https://ssd.jpl.nasa.gov/
    Mailing list: https://ssd.jpl.nasa.gov/email_list.html
    System news : https://ssd.jpl.nasa.gov/horizons/news.html
    User Guide  : https://ssd.jpl.nasa.gov/horizons/manual.html
    Connect     : browser        https://ssd.jpl.nasa.gov/horizons/app.html#/x
                  API            https://ssd-api.jpl.nasa.gov/doc/horizons.html
                  command-line   telnet ssd.jpl.nasa.gov 6775
                  e-mail/batch   https://ssd.jpl.nasa.gov/ftp/ssd/hrzn_batch.txt
                  scripts        https://ssd.jpl.nasa.gov/ftp/ssd/SCRIPTS
    Author      : Jon.D.Giorgini@jpl.nasa.gov
*******************************************************************************
